INTELSAT 8 (IS-8)       
1 25522U 98065A   17345.82823782 -.00000133  00000-0  00000-0 0  9992
2 25522   1.4100  87.2418 0299897 223.9980 294.4007  0.95185749 15214
